OBJECT_NAME,OBJECT_ID,EPOCH,MEAN_MOTION,ECCENTRICITY,INCLINATION,RA_OF_ASC_NODE,ARG_OF_PERICENTER,MEAN_ANOMALY,EPHEMERIS_TYPE,CLASSIFICATION_TYPE,NORAD_CAT_ID,ELEMENT_SET_NO,REV_AT_EPOCH,BSTAR,MEAN_MOTION_DOT,MEAN_MOTION_DDOT
APRIZESAT 4,2009-041D,2024-07-11T03:14:29.014656,14.81490437,.0046547,98.2351,240.6320,86.2228,274.4304,0,U,35684,999,80672,.17111E-3,.1308E-4,0
NANOSAT 1B,2009-041E,2024-07-11T06:14:35.975040,14.88147124,.0053443,98.0971,282.6159,324.0964,35.6665,0,U,35685,999,80922,.23772E-3,.2186E-4,0
APRIZESAT 3,2009-041F,2024-07-11T07:36:06.490656,14.91367696,.0066672,98.1189,308.1221,233.0762,126.4337,0,U,35686,999,81096,.22704E-3,.2298E-4,0
ASIASAT 5,2009-042A,2024-07-11T13:51:01.130688,1.00274493,.000175,0.0116,287.3956,151.7793,159.0166,0,U,35696,999,5463,0,-.3E-5,0
NAVSTAR 64 (USA 206),2009-043A,2024-07-11T09:37:25.770144,2.00567890,.0057158,55.6932,55.3200,72.9649,122.2137,0,U,35752,999,10920,0,-.73E-6,0
JCSAT-12 (JCSAT-RA),2009-044A,2024-07-11T13:20:42.781344,1.00271122,.000208,0.0387,88.4116,28.0934,145.6560,0,U,35755,999,5453,0,-.321E-5,0
OPTUS D3,2009-044B,2024-07-11T11:48:42.501312,1.00271404,.0003041,0.0733,67.2659,28.5337,167.2397,0,U,35756,999,5448,0,-.14E-5,0
NIMIQ 5,2009-050A,2024-07-11T14:56:19.639392,1.00271902,.0002782,0.0424,257.1984,204.7939,339.4007,0,U,35873,999,5426,0,-.249E-5,0
OCEANSAT-2,2009-051A,2024-07-11T14:17:10.593600,13.99476802,.0016804,98.2631,240.0120,69.8964,290.4009,0,U,35931,999,78063,-.99411E-4,-.183E-5,0
SWISSCUBE,2009-051B,2024-07-11T13:49:07.611456,14.59185690,.0005973,98.4684,77.3734,238.7625,121.2989,0,U,35932,999,78611,.3189E-3,.1455E-4,0
BEESAT-1,2009-051C,2024-07-11T14:02:39.895872,14.58904159,.0004232,98.4613,78.2604,253.2828,106.7907,0,U,35933,999,78618,.27755E-3,.1252E-4,0
ITUPSAT1,2009-051E,2024-07-11T14:48:57.763872,14.57852990,.000648,98.4710,78.0648,262.3480,97.6983,0,U,35935,999,78582,.26335E-3,.1158E-4,0
AMAZONAS 2,2009-054A,2024-07-01T17:40:54.591744,1.00269322,.0005246,0.0536,115.9946,9.3057,359.1854,0,U,35942,999,5401,0,-.279E-5,0
COMSATBW-1,2009-054B,2024-07-11T02:30:42.821856,1.00276110,.000259,0.0255,48.6961,75.3683,266.1537,0,U,35943,999,5421,0,.29E-6,0
WORLDVIEW-2 (WV-2),2009-055A,2024-07-11T12:03:31.940064,14.36826248,.0004732,98.4603,265.8958,148.9128,211.2339,0,U,35946,999,77427,.10063E-3,.254E-5,0
DMSP 5D-3 F18 (USA 210),2009-057A,2024-07-11T12:46:31.641888,14.14161253,.0012394,98.8147,168.5561,96.5640,263.6945,0,U,35951,999,75982,.21826E-3,.372E-5,0
NSS-12,2009-058A,2024-07-11T13:37:58.395072,1.00272066,.0003445,0.0760,278.3182,190.9574,82.1605,0,U,36032,999,5384,0,.79E-6,0
THOR 6,2009-058B,2024-07-10T18:28:14.957184,1.00272409,.0002268,0.0477,244.2578,257.5446,63.5646,0,U,36033,999,5392,0,-.5E-7,0
SMOS,2009-059A,2024-07-11T12:35:46.991616,14.39770976,.0001424,98.4431,20.1142,90.8961,269.2390,0,U,36036,999,77191,.16081E-3,.461E-5,0
PROBA-2,2009-059B,2024-07-11T13:43:23.778336,14.53973333,.0012211,98.2318,16.5922,302.6061,57.3957,0,U,36037,999,77895,.92003E-4,.343E-5,0
SJ-11-01,2009-061A,2024-07-11T14:04:21.440928,14.61987718,.0012911,97.9398,187.3250,88.0594,25.9510,0,U,36088,999,78132,.1975E-3,.946E-5,0
COSMOS 2455,2009-063A,2024-07-11T07:24:51.582240,13.96912563,.0009302,67.1463,169.4400,273.0297,86.9723,0,U,36095,999,74653,.50059E-4,-.6E-7,0
INTELSAT 14 (IS-14),2009-064A,2024-07-11T11:26:08.981376,1.00269938,.000237,0.0123,54.6570,59.9201,301.8097,0,U,36097,999,5352,0,-.266E-5,0
EUTELSAT 36B,2009-065A,2024-07-11T11:49:27.468192,1.00272114,.0005497,0.0654,13.1805,95.6079,34.3296,0,U,36101,999,5364,0,.162E-5,0
INTELSAT 15 (IS-15),2009-067A,2024-07-11T13:46:37.974432,1.00273789,.0002224,0.0164,358.0881,109.0120,114.6506,0,U,36106,999,3415,0,-.178E-5,0
WGS F3 (USA 211),2009-068A,2024-07-10T23:25:40.641312,1.00272399,.0000253,0.0199,39.5086,175.0341,23.4540,0,U,36108,999,3952,0,-.262E-5,0
YAOGAN-7,2009-069A,2024-07-11T14:39:47.907360,14.76298916,.0026073,98.1025,69.5180,147.3314,212.9514,0,U,36110,999,78545,.11222E-3,.729E-5,0
COSMOS 2456 [GLONASS-M],2009-070A,2024-07-11T07:52:42.681792,2.13099239,.0003946,64.6220,95.1285,325.0345,217.5487,0,U,36111,999,11338,0,-.2E-6,0
COSMOS 2457 [GLONASS-M],2009-070B,2024-07-10T04:25:02.561952,2.13101415,.0003614,64.6061,95.0260,150.5266,7.4943,0,U,36112,999,11340,0,-.16E-6,0
WISE,2009-071A,2024-07-11T14:18:30.328704,15.67792338,.0002797,97.1410,230.5680,104.7615,255.3957,0,U,36119,999,81206,.55479E-3,.61053E-3,0
YAOGAN-8,2009-072A,2024-07-11T14:18:35.680320,13.05029543,.0021737,100.2829,101.9504,109.7145,250.6309,0,U,36121,999,69663,.85023E-3,.233E-5,0
XIWANG-1 (HOPE-1),2009-072B,2024-07-11T12:11:00.734496,13.16403389,.0008092,100.2950,151.1442,50.9954,309.1879,0,U,36122,999,70015,.52027E-4,-.24E-6,0
DIRECTV 12,2009-075A,2024-07-10T14:33:17.522784,1.00272313,.0000174,0.0093,217.0489,140.6199,46.9358,0,U,36131,999,3947,0,-.99E-6,0
BEIDOU-2 G1,2010-001A,2024-07-11T14:02:22.962336,1.00272474,.00034,2.6660,58.4833,314.0019,268.5106,0,U,36287,999,5309,0,-.274E-5,0
RADUGA-1M 2,2010-002A,2024-07-11T13:46:37.974432,1.00272555,.0001421,1.7836,88.1900,21.3111,112.1526,0,U,36358,999,4301,0,-.178E-5,0
SDO,2010-005A,2024-07-11T06:00:49.745664,1.00270435,.0000573,33.1723,97.2160,164.2083,16.3790,0,U,36395,999,5298,0,-.77E-6,0
INTELSAT 16 (IS-16),2010-006A,2024-07-11T06:08:13.351776,1.00270178,.000288,0.0091,349.7339,153.6551,162.0912,0,U,36397,999,5257,0,-.238E-5,0
COSMOS 2460 [GLONASS-M],2010-007C,2024-07-11T04:59:18.684960,2.13106419,.0001757,65.7829,338.2483,112.8271,102.8154,0,U,36402,999,11168,0,-.69E-6,0
EWS-G2 (GOES 15),2010-008A,2024-07-11T13:39:28.620000,1.00271998,.0003013,0.3661,89.0153,105.3369,1.6213,0,U,36411,999,5256,0,.47E-6,0
YAOGAN-9 01A,2010-009A,2024-07-11T13:25:50.291040,13.45413040,.0476992,63.3749,22.4534,16.6206,344.9860,0,U,36413,999,70502,.57992E-4,-.23E-6,0
YAOGAN-9 01B,2010-009B,2024-07-11T14:50:50.360352,13.45426719,.0477537,63.3763,21.9118,15.8696,345.6718,0,U,36414,999,70480,.58658E-4,-.22E-6,0
YAOGAN-9 01C,2010-009C,2024-07-11T14:48:20.296512,13.45423820,.0478321,63.3759,22.4799,16.1802,345.3911,0,U,36415,999,70496,.59407E-4,-.21E-6,0
ECHOSTAR 14,2010-010A,2024-07-11T04:13:02.450784,1.00271043,.0002397,0.0192,38.8911,68.9986,126.0454,0,U,36499,999,3947,0,.6E-7,0
CRYOSAT 2,2010-013A,2024-07-11T13:08:27.587328,14.51899002,.0002801,92.0339,106.9446,146.9604,213.1779,0,U,36508,999,75569,.77218E-4,.314E-5,0
SES-1,2010-016A,2024-07-10T19:42:45.212832,1.00271661,.0002582,0.0188,336.6833,125.6506,21.5576,0,U,36516,999,5195,0,-.109E-5,0
COSMOS 2463,2010-017A,2024-07-11T13:42:47.849760,13.71565345,.0034893,82.9594,48.1393,288.8359,128.7855,0,U,36519,999,71120,.45834E-4,.56E-6,0
ASTRA 3B,2010-021A,2024-07-11T11:45:56.944224,1.00268193,.0004368,0.0451,61.0402,40.9972,27.8016,0,U,36581,999,5180,0,.144E-5,0
COMSATBW-2,2010-021B,2024-07-11T13:25:56.594784,1.00273643,.0002144,0.0480,111.6673,9.8199,23.1198,0,U,36582,999,5188,0,.96E-6,0
NAVSTAR 65 (USA 213),2010-022A,2024-07-10T11:51:49.701600,2.00552637,.0114054,54.4381,237.0587,61.9630,318.6977,0,U,36585,999,10342,0,.16E-6,0
BEIDOU-2 G3,2010-024A,2024-07-11T13:45:00.230112,1.00274674,.0008285,2.8603,61.2395,354.6004,159.8920,0,U,36590,999,5169,0,-.129E-5,0
BADR-5,2010-025A,2024-07-10T16:53:15.967392,1.00276339,.0005338,0.0306,133.2608,3.8783,71.2556,0,U,36592,999,5181,0,.149E-5,0
SJ-12,2010-027A,2024-07-11T13:01:48.644832,15.05092228,.0007813,97.7596,188.4688,2.2701,357.8559,0,U,36596,999,76825,.43947E-3,.6194E-4,0
TANDEM-X,2010-030A,2024-07-11T13:04:42.913632,15.19145591,.0001773,97.4457,200.3491,93.1759,266.9678,0,U,36605,999,77951,.8274E-4,.1671E-4,0
COMS 1,2010-032A,2024-07-11T13:38:42.717408,1.00271264,.0000803,3.0026,84.1012,29.1262,149.5326,0,U,36744,999,4401,0,-.339E-5,0
ARABSAT-5A,2010-032B,2024-07-11T11:47:57.244128,1.00271478,.0005372,0.0650,52.9948,55.1238,29.2039,0,U,36745,999,5157,0,.16E-5,0
ECHOSTAR 15,2010-034A,2024-07-11T05:25:11.202240,1.00269054,.0001871,0.0113,334.1673,121.2298,213.8329,0,U,36792,999,5124,0,-.275E-5,0
CARTOSAT-2B,2010-035A,2024-07-11T13:43:38.447328,14.78745140,.0011132,97.8587,251.0815,323.5431,36.5021,0,U,36795,999,75557,.17033E-3,.1201E-4,0
AISSAT 1,2010-035C,2024-07-11T13:37:58.889280,14.91333657,.0009167,98.1834,56.0143,219.9846,140.0697,0,U,36797,999,75880,.31932E-3,.3125E-4,0
ALSAT 2A,2010-035D,2024-07-11T13:44:55.620672,14.72179147,.0001476,97.7831,214.8949,78.8459,281.2915,0,U,36798,999,74984,.21984E-3,.1339E-4,0
TISAT 1,2010-035E,2024-07-11T13:56:43.679904,15.03020999,.0005349,98.0868,84.0789,138.3988,221.7643,0,U,36799,999,76072,.71094E-3,.9515E-4,0
BEIDOU-2 IGSO-1,2010-036A,2024-07-10T20:42:51.870240,1.00275939,.0041777,54.2568,169.3495,207.3134,331.3281,0,U,36828,999,5112,0,-.83E-6,0
NILESAT 201,2010-037A,2024-07-11T08:11:04.224768,1.00271665,.0004991,0.0227,135.7831,357.1033,272.6095,0,U,36830,999,5128,0,-.51E-6,0
RASCOM-QAF 1R,2010-037B,2024-07-11T13:23:03.664320,1.00271956,.000577,0.0436,98.0735,10.6378,24.8857,0,U,36831,999,5122,0,.26E-6,0
YAOGAN-10,2010-038A,2024-07-11T15:05:33.782208,14.82906089,.0001386,97.9474,210.6249,96.6702,14.8896,0,U,36834,999,75255,.13022E-3,.1002E-4,0
AEHF-1 (USA 214),2010-039A,2024-07-11T03:18:42.843168,1.00274368,.000407,6.4393,77.0343,27.2029,238.9981,0,U,36868,999,4657,0,.28E-6,0
TIANHUI 1,2010-040A,2024-07-11T14:30:22.041792,15.48409566,.0019918,97.5653,84.9251,133.0722,227.2200,0,U,36985,999,77281,.52288E-3,.27895E-3,0
COSMOS 2467,2010-043A,2024-07-11T10:11:34.935360,12.42947012,.000037,82.4576,146.5046,94.7133,26.6406,0,U,37152,999,62782,.68494E-4,.19E-6,0
STRELA 3,2010-043B,2024-07-11T12:35:40.922880,12.40768771,.0007505,82.4580,157.9849,166.1463,193.9823,0,U,37153,999,62685,.19403E-3,.36E-6,0
COSMOS 2468,2010-043C,2024-07-11T09:14:27.260736,12.43711277,.0015751,82.4614,144.1593,50.0245,129.3718,0,U,37154,999,62813,.2404E-3,.44E-6,0
YAOGAN-11,2010-047A,2024-07-11T11:45:54.644256,14.79167006,.0036285,98.4358,13.4322,345.5316,14.4851,0,U,37165,999,74364,.19014E-3,.1366E-4,0
